[
  {
    "OBJECT_NAME": "STARLINK-1168",
    "OBJECT_ID": "20006AE",
    "EPOCH": "2025-11-11T07:08:52.877472",
    "MEAN_MOTION": 15.06397699,
    "ECCENTRICITY": 0.00013,
    "INCLINATION": 53.0536,
    "RA_OF_ASC_NODE": 78.0984,
    "ARG_OF_PERICENTER": 81.6519,
    "MEAN_ANOMALY": 278.4618,
    "EPHEMERIS_TYPE": 0,
    "CLASSIFICATION_TYPE": "U",
    "NORAD_CAT_ID": 45072,
    "ELEMENT_SET_NO": 999,
    "REV_AT_EPOCH": 31889,
    "BSTAR": 0.0,
    "MEAN_MOTION_DOT": -1.075e-05,
    "MEAN_MOTION_DDOT": 0.0,
    "TLE_LINE1": "1 45072U 20006AE  25315.29783423 -.00001075  00000+0 -53283-4 0  9999",
    "TLE_LINE2": "2 45072  53.0536  78.0984 0001300  81.6519 278.4618 15.06397699318892",
    "COMMENT": "Grouped by shell and plane from TLE"
  },
  {
    "OBJECT_NAME": "STARLINK-1172",
    "OBJECT_ID": "20006AG",
    "EPOCH": "2025-11-11T07:24:48.068352",
    "MEAN_MOTION": 15.06400278,
    "ECCENTRICITY": 6.18e-05,
    "INCLINATION": 53.0553,
    "RA_OF_ASC_NODE": 78.0517,
    "ARG_OF_PERICENTER": 1.9617,
    "MEAN_ANOMALY": 358.1375,
    "EPHEMERIS_TYPE": 0,
    "CLASSIFICATION_TYPE": "U",
    "NORAD_CAT_ID": 45074,
    "ELEMENT_SET_NO": 999,
    "REV_AT_EPOCH": 31889,
    "BSTAR": 7.9145e-05,
    "MEAN_MOTION_DOT": 8.98e-06,
    "MEAN_MOTION_DDOT": 0.0,
    "TLE_LINE1": "1 45074U 20006AG  25315.30888968  .00000898  00000+0  79145-4 0  9998",
    "TLE_LINE2": "2 45074  53.0553  78.0517 0000618   1.9617 358.1375 15.06400278318894",
    "COMMENT": "Grouped by shell and plane from TLE"
  },
  {
    "OBJECT_NAME": "STARLINK-1151",
    "OBJECT_ID": "20006AP",
    "EPOCH": "2025-11-11T01:45:07.617312",
    "MEAN_MOTION": 15.06387111,
    "ECCENTRICITY": 0.0001249,
    "INCLINATION": 53.0543,
    "RA_OF_ASC_NODE": 79.1846,
    "ARG_OF_PERICENTER": 87.2762,
    "MEAN_ANOMALY": 272.837,
    "EPHEMERIS_TYPE": 0,
    "CLASSIFICATION_TYPE": "U",
    "NORAD_CAT_ID": 45081,
    "ELEMENT_SET_NO": 999,
    "REV_AT_EPOCH": 31886,
    "BSTAR": 0.0,
    "MEAN_MOTION_DOT": -7.86e-06,
    "MEAN_MOTION_DDOT": 0.0,
    "TLE_LINE1": "1 45081U 20006AP  25315.07300483 -.00000786  00000+0 -33865-4 0  9998",
    "TLE_LINE2": "2 45081  53.0543  79.1846 0001249  87.2762 272.8370 15.06387111318861",
    "COMMENT": "Grouped by shell and plane from TLE"
  },
  {
    "OBJECT_NAME": "STARLINK-2377",
    "OBJECT_ID": "21018L",
    "EPOCH": "2025-11-10T14:27:02.814624",
    "MEAN_MOTION": 15.06412679,
    "ECCENTRICITY": 0.0001061,
    "INCLINATION": 53.0545,
    "RA_OF_ASC_NODE": 71.2231,
    "ARG_OF_PERICENTER": 81.0519,
    "MEAN_ANOMALY": 279.059,
    "EPHEMERIS_TYPE": 0,
    "CLASSIFICATION_TYPE": "U",
    "NORAD_CAT_ID": 47797,
    "ELEMENT_SET_NO": 999,
    "REV_AT_EPOCH": 25857,
    "BSTAR": 0.00016361999999999998,
    "MEAN_MOTION_DOT": 2.157e-05,
    "MEAN_MOTION_DDOT": 0.0,
    "TLE_LINE1": "1 47797U 21018L   25314.60211591  .00002157  00000+0  16362-3 0  9991",
    "TLE_LINE2": "2 47797  53.0545  71.2231 0001061  81.0519 279.0590 15.06412679258576",
    "COMMENT": "Grouped by shell and plane from TLE"
  },
  {
    "OBJECT_NAME": "STARLINK-2383",
    "OBJECT_ID": "21018R",
    "EPOCH": "2025-11-10T11:26:34.617120",
    "MEAN_MOTION": 15.06407322,
    "ECCENTRICITY": 0.000144,
    "INCLINATION": 53.0552,
    "RA_OF_ASC_NODE": 71.7855,
    "ARG_OF_PERICENTER": 74.3951,
    "MEAN_ANOMALY": 285.7197,
    "EPHEMERIS_TYPE": 0,
    "CLASSIFICATION_TYPE": "U",
    "NORAD_CAT_ID": 47802,
    "ELEMENT_SET_NO": 999,
    "REV_AT_EPOCH": 25856,
    "BSTAR": 0.00015839,
    "MEAN_MOTION_DOT": 2.079e-05,
    "MEAN_MOTION_DDOT": 0.0,
    "TLE_LINE1": "1 47802U 21018R   25314.47678955  .00002079  00000+0  15839-3 0  9995",
    "TLE_LINE2": "2 47802  53.0552  71.7855 0001440  74.3951 285.7197 15.06407322258569",
    "COMMENT": "Grouped by shell and plane from TLE"
  },
  {
    "OBJECT_NAME": "STARLINK-2391",
    "OBJECT_ID": "21018Z",
    "EPOCH": "2025-11-11T07:17:30.635520",
    "MEAN_MOTION": 15.06402495,
    "ECCENTRICITY": 0.0001645,
    "INCLINATION": 53.0553,
    "RA_OF_ASC_NODE": 73.0748,
    "ARG_OF_PERICENTER": 81.8217,
    "MEAN_ANOMALY": 278.2959,
    "EPHEMERIS_TYPE": 0,
    "CLASSIFICATION_TYPE": "U",
    "NORAD_CAT_ID": 47810,
    "ELEMENT_SET_NO": 999,
    "REV_AT_EPOCH": 25866,
    "BSTAR": 0.00013667,
    "MEAN_MOTION_DOT": 1.755e-05,
    "MEAN_MOTION_DDOT": 0.0,
    "TLE_LINE1": "1 47810U 21018Z   25315.30382680  .00001755  00000+0  13667-3 0  9991",
    "TLE_LINE2": "2 47810  53.0553  73.0748 0001645  81.8217 278.2959 15.06402495258660",
    "COMMENT": "Grouped by shell and plane from TLE"
  },
  {
    "OBJECT_NAME": "STARLINK-2407",
    "OBJECT_ID": "21018AM",
    "EPOCH": "2025-11-11T06:54:54.764640",
    "MEAN_MOTION": 15.06404586,
    "ECCENTRICITY": 0.000129,
    "INCLINATION": 53.0552,
    "RA_OF_ASC_NODE": 73.1322,
    "ARG_OF_PERICENTER": 85.8547,
    "MEAN_ANOMALY": 274.2589,
    "EPHEMERIS_TYPE": 0,
    "CLASSIFICATION_TYPE": "U",
    "NORAD_CAT_ID": 47822,
    "ELEMENT_SET_NO": 999,
    "REV_AT_EPOCH": 25861,
    "BSTAR": 0.00020374,
    "MEAN_MOTION_DOT": 2.755e-05,
    "MEAN_MOTION_DDOT": 0.0,
    "TLE_LINE1": "1 47822U 21018AM  25315.28813385  .00002755  00000+0  20374-3 0  9996",
    "TLE_LINE2": "2 47822  53.0552  73.1322 0001290  85.8547 274.2589 15.06404586258610",
    "COMMENT": "Grouped by shell and plane from TLE"
  },
  {
    "OBJECT_NAME": "STARLINK-2415",
    "OBJECT_ID": "21018AT",
    "EPOCH": "2025-11-11T07:01:35.290848",
    "MEAN_MOTION": 15.06396791,
    "ECCENTRICITY": 6.51e-05,
    "INCLINATION": 53.0563,
    "RA_OF_ASC_NODE": 73.1232,
    "ARG_OF_PERICENTER": 92.2239,
    "MEAN_ANOMALY": 267.8825,
    "EPHEMERIS_TYPE": 0,
    "CLASSIFICATION_TYPE": "U",
    "NORAD_CAT_ID": 47828,
    "ELEMENT_SET_NO": 999,
    "REV_AT_EPOCH": 25861,
    "BSTAR": 0.0,
    "MEAN_MOTION_DOT": -6.64e-06,
    "MEAN_MOTION_DDOT": 0.0,
    "TLE_LINE1": "1 47828U 21018AT  25315.29276957 -.00000664  00000+0 -25742-4 0  9995",
    "TLE_LINE2": "2 47828  53.0563  73.1232 0000651  92.2239 267.8825 15.06396791258617",
    "COMMENT": "Grouped by shell and plane from TLE"
  },
  {
    "OBJECT_NAME": "STARLINK-2419",
    "OBJECT_ID": "21018AV",
    "EPOCH": "2025-11-11T07:22:49.278720",
    "MEAN_MOTION": 15.06399918,
    "ECCENTRICITY": 0.0001274,
    "INCLINATION": 53.0517,
    "RA_OF_ASC_NODE": 73.0523,
    "ARG_OF_PERICENTER": 71.5023,
    "MEAN_ANOMALY": 288.6104,
    "EPHEMERIS_TYPE": 0,
    "CLASSIFICATION_TYPE": "U",
    "NORAD_CAT_ID": 47830,
    "ELEMENT_SET_NO": 999,
    "REV_AT_EPOCH": 25860,
    "BSTAR": 7.5537e-05,
    "MEAN_MOTION_DOT": 8.44e-06,
    "MEAN_MOTION_DDOT": 0.0,
    "TLE_LINE1": "1 47830U 21018AV  25315.30751480  .00000844  00000+0  75537-4 0  9994",
    "TLE_LINE2": "2 47830  53.0517  73.0523 0001274  71.5023 288.6104 15.06399918258608",
    "COMMENT": "Grouped by shell and plane from TLE"
  },
  {
    "OBJECT_NAME": "STARLINK-2280",
    "OBJECT_ID": "21021B",
    "EPOCH": "2025-11-11T07:19:29.712000",
    "MEAN_MOTION": 15.06407486,
    "ECCENTRICITY": 0.0001361,
    "INCLINATION": 53.0537,
    "RA_OF_ASC_NODE": 78.0682,
    "ARG_OF_PERICENTER": 72.803,
    "MEAN_ANOMALY": 287.3108,
    "EPHEMERIS_TYPE": 0,
    "CLASSIFICATION_TYPE": "U",
    "NORAD_CAT_ID": 47861,
    "ELEMENT_SET_NO": 999,
    "REV_AT_EPOCH": 25842,
    "BSTAR": 0.00017264,
    "MEAN_MOTION_DOT": 2.291e-05,
    "MEAN_MOTION_DDOT": 0.0,
    "TLE_LINE1": "1 47861U 21021B   25315.30520500  .00002291  00000+0  17264-3 0  9999",
    "TLE_LINE2": "2 47861  53.0537  78.0682 0001361  72.8030 287.3108 15.06407486258424",
    "COMMENT": "Grouped by shell and plane from TLE"
  },
  {
    "OBJECT_NAME": "STARLINK-2291",
    "OBJECT_ID": "21021C",
    "EPOCH": "2025-11-10T11:44:29.300928",
    "MEAN_MOTION": 15.064077,
    "ECCENTRICITY": 0.0001375,
    "INCLINATION": 53.0553,
    "RA_OF_ASC_NODE": 76.7302,
    "ARG_OF_PERICENTER": 81.0924,
    "MEAN_ANOMALY": 279.022,
    "EPHEMERIS_TYPE": 0,
    "CLASSIFICATION_TYPE": "U",
    "NORAD_CAT_ID": 47862,
    "ELEMENT_SET_NO": 999,
    "REV_AT_EPOCH": 25836,
    "BSTAR": 0.00017431,
    "MEAN_MOTION_DOT": 2.316e-05,
    "MEAN_MOTION_DDOT": 0.0,
    "TLE_LINE1": "1 47862U 21021C   25314.48922802  .00002316  00000+0  17431-3 0  9993",
    "TLE_LINE2": "2 47862  53.0553  76.7302 0001375  81.0924 279.0220 15.06407700258361",
    "COMMENT": "Grouped by shell and plane from TLE"
  },
  {
    "OBJECT_NAME": "STARLINK-2329",
    "OBJECT_ID": "21021P",
    "EPOCH": "2025-11-11T07:44:03.858432",
    "MEAN_MOTION": 15.06398907,
    "ECCENTRICITY": 0.0001804,
    "INCLINATION": 53.0566,
    "RA_OF_ASC_NODE": 72.9884,
    "ARG_OF_PERICENTER": 83.6908,
    "MEAN_ANOMALY": 276.4287,
    "EPHEMERIS_TYPE": 0,
    "CLASSIFICATION_TYPE": "U",
    "NORAD_CAT_ID": 47873,
    "ELEMENT_SET_NO": 999,
    "REV_AT_EPOCH": 25848,
    "BSTAR": 0.0,
    "MEAN_MOTION_DOT": -1.751e-05,
    "MEAN_MOTION_DDOT": 0.0,
    "TLE_LINE1": "1 47873U 21021P   25315.32226688 -.00001751  00000+0 -98682-4 0  9990",
    "TLE_LINE2": "2 47873  53.0566  72.9884 0001804  83.6908 276.4287 15.06398907258482",
    "COMMENT": "Grouped by shell and plane from TLE"
  },
  {
    "OBJECT_NAME": "STARLINK-2361",
    "OBJECT_ID": "21021AT",
    "EPOCH": "2025-11-11T01:27:13.062240",
    "MEAN_MOTION": 15.06391179,
    "ECCENTRICITY": 0.000134,
    "INCLINATION": 53.0559,
    "RA_OF_ASC_NODE": 74.2513,
    "ARG_OF_PERICENTER": 87.0797,
    "MEAN_ANOMALY": 273.0346,
    "EPHEMERIS_TYPE": 0,
    "CLASSIFICATION_TYPE": "U",
    "NORAD_CAT_ID": 47901,
    "ELEMENT_SET_NO": 999,
    "REV_AT_EPOCH": 25844,
    "BSTAR": 1.3797999999999999e-05,
    "MEAN_MOTION_DOT": -7.6e-07,
    "MEAN_MOTION_DDOT": 0.0,
    "TLE_LINE1": "1 47901U 21021AT  25315.06056785 -.00000076  00000+0  13798-4 0  9995",
    "TLE_LINE2": "2 47901  53.0559  74.2513 0001340  87.0797 273.0346 15.06391179258448",
    "COMMENT": "Grouped by shell and plane from TLE"
  }
]